[
    {
        "Altitude(m)": 556966.7819267777,
        "Argument of Periapsis(deg)": 0.006622991110713501,
        "Eccentricity": 0.0,
        "Inclination(deg)": 53.0,
        "Latitude(deg)": 40.09227344269417,
        "Longitude(deg)": 155.1102616277476,
        "Mean Anomaly(deg)": 126.45529286757754,
        "RAAN(deg)": 114.99014336852801,
        "Satellite Name": "Starlink Shell 1 513",
        "Satellite Number": 513,
        "Semi-Major Axis(m)": 6931778.249405717,
        "Time(s)": 190
    },
    {
        "Altitude(m)": 556883.8416396615,
        "Argument of Periapsis(deg)": 0.0069715695902247375,
        "Eccentricity": 0.0,
        "Inclination(deg)": 53.0,
        "Latitude(deg)": 39.70103653742045,
        "Longitude(deg)": 155.7071299499409,
        "Mean Anomaly(deg)": 127.08212407113433,
        "RAAN(deg)": 114.98962459845053,
        "Satellite Name": "Starlink Shell 1 513",
        "Satellite Number": 513,
        "Semi-Major Axis(m)": 6931778.249405717,
        "Time(s)": 200
    },
    {
        "Altitude(m)": 556800.7083285798,
        "Argument of Periapsis(deg)": 0.007320148069735974,
        "Eccentricity": 0.0,
        "Inclination(deg)": 53.0,
        "Latitude(deg)": 39.306305249772244,
        "Longitude(deg)": 156.29680742424767,
        "Mean Anomaly(deg)": 127.70895527469106,
        "RAAN(deg)": 114.98910582837307,
        "Satellite Name": "Starlink Shell 1 513",
        "Satellite Number": 513,
        "Semi-Major Axis(m)": 6931778.249405717,
        "Time(s)": 210
    },
    {
        "Altitude(m)": 556717.4361663572,
        "Argument of Periapsis(deg)": 0.007668726549247212,
        "Eccentricity": 0.0,
        "Inclination(deg)": 53.0,
        "Latitude(deg)": 38.90816555873561,
        "Longitude(deg)": 156.87941256781755,
        "Mean Anomaly(deg)": 128.33578647824774,
        "RAAN(deg)": 114.98858705829561,
        "Satellite Name": "Starlink Shell 1 513",
        "Satellite Number": 513,
        "Semi-Major Axis(m)": 6931778.249405717,
        "Time(s)": 220
    },
    {
        "Altitude(m)": 556634.0796064973,
        "Argument of Periapsis(deg)": 0.00801730502875845,
        "Eccentricity": 0.0,
        "Inclination(deg)": 53.0,
        "Latitude(deg)": 38.50670163142088,
        "Longitude(deg)": 157.45506462655692,
        "Mean Anomaly(deg)": 128.9626176818044,
        "RAAN(deg)": 114.98806828821812,
        "Satellite Name": "Starlink Shell 1 513",
        "Satellite Number": 513,
        "Semi-Major Axis(m)": 6931778.249405717,
        "Time(s)": 230
    },
    {
        "Altitude(m)": 556550.6933554562,
        "Argument of Periapsis(deg)": 0.008365883508269684,
        "Eccentricity": 0.0,
        "Inclination(deg)": 53.0,
        "Latitude(deg)": 38.10199584167764,
        "Longitude(deg)": 158.0238838748768,
        "Mean Anomaly(deg)": 129.58944888536115,
        "RAAN(deg)": 114.98754951814065,
        "Satellite Name": "Starlink Shell 1 513",
        "Satellite Number": 513,
        "Semi-Major Axis(m)": 6931778.249405717,
        "Time(s)": 240
    },
    {
        "Altitude(m)": 556467.3323447403,
        "Argument of Periapsis(deg)": 0.008714461987780921,
        "Eccentricity": 0.0,
        "Inclination(deg)": 53.0,
        "Latitude(deg)": 37.694128790956434,
        "Longitude(deg)": 158.58599041715306,
        "Mean Anomaly(deg)": 130.21628008891793,
        "RAAN(deg)": 114.98703074806318,
        "Satellite Name": "Starlink Shell 1 513",
        "Satellite Number": 513,
        "Semi-Major Axis(m)": 6931778.249405717,
        "Time(s)": 250
    },
    {
        "Altitude(m)": 556384.05170288,
        "Argument of Periapsis(deg)": 0.009063040467292158,
        "Eccentricity": 0.0,
        "Inclination(deg)": 53.0,
        "Latitude(deg)": 37.283179331166664,
        "Longitude(deg)": 159.14150451604124,
        "Mean Anomaly(deg)": 130.84311129247462,
        "RAAN(deg)": 114.9865119779857,
        "Satellite Name": "Starlink Shell 1 513",
        "Satellite Number": 513,
        "Semi-Major Axis(m)": 6931778.249405717,
        "Time(s)": 260
    },
    {
        "Altitude(m)": 556300.9067272157,
        "Argument of Periapsis(deg)": 0.009411618946803396,
        "Eccentricity": 0.0,
        "Inclination(deg)": 53.0,
        "Latitude(deg)": 36.86922458930578,
        "Longitude(deg)": 159.69054693415688,
        "Mean Anomaly(deg)": 131.46994249603128,
        "RAAN(deg)": 114.98599320790824,
        "Satellite Name": "Starlink Shell 1 513",
        "Satellite Number": 513,
        "Semi-Major Axis(m)": 6931778.249405717,
        "Time(s)": 270
    },
    {
        "Altitude(m)": 556217.9528555991,
        "Argument of Periapsis(deg)": 0.009760197426314633,
        "Eccentricity": 0.0,
        "Inclination(deg)": 53.0,
        "Latitude(deg)": 36.45233999364819,
        "Longitude(deg)": 160.23323777563013,
        "Mean Anomaly(deg)": 132.096773699588,
        "RAAN(deg)": 114.98547443783077,
        "Satellite Name": "Starlink Shell 1 513",
        "Satellite Number": 513,
        "Semi-Major Axis(m)": 6931778.249405717,
        "Time(s)": 280
    },
    {
        "Altitude(m)": 556135.2456379494,
        "Argument of Periapsis(deg)": 0.01010877590582587,
        "Eccentricity": 0.0,
        "Inclination(deg)": 53.0,
        "Latitude(deg)": 36.032599301290176,
        "Longitude(deg)": 160.7696968526702,
        "Mean Anomaly(deg)": 132.72360490314475,
        "RAAN(deg)": 114.98495566775328,
        "Satellite Name": "Starlink Shell 1 513",
        "Satellite Number": 513,
        "Semi-Major Axis(m)": 6931778.249405717,
        "Time(s)": 290
    },
    {
        "Altitude(m)": 556052.8407077366,
        "Argument of Periapsis(deg)": 0.010457354385337106,
        "Eccentricity": 0.0,
        "Inclination(deg)": 53.0,
        "Latitude(deg)": 35.61007462686728,
        "Longitude(deg)": 161.30004406365867,
        "Mean Anomaly(deg)": 133.3504361067014,
        "RAAN(deg)": 114.98443689767582,
        "Satellite Name": "Starlink Shell 1 513",
        "Satellite Number": 513,
        "Semi-Major Axis(m)": 6931778.249405717,
        "Time(s)": 300
    },
    {
        "Altitude(m)": 555970.7937533485,
        "Argument of Periapsis(deg)": 0.010805932864848343,
        "Eccentricity": 0.0,
        "Inclination(deg)": 53.0,
        "Latitude(deg)": 35.184836472275514,
        "Longitude(deg)": 161.824398269298,
        "Mean Anomaly(deg)": 133.9772673102582,
        "RAAN(deg)": 114.98391812759834,
        "Satellite Name": "Starlink Shell 1 513",
        "Satellite Number": 513,
        "Semi-Major Axis(m)": 6931778.249405717,
        "Time(s)": 310
    },
    {
        "Altitude(m)": 555889.1604894057,
        "Argument of Periapsis(deg)": 0.01115451134435958,
        "Eccentricity": 0.0,
        "Inclination(deg)": 53.0,
        "Latitude(deg)": 34.75695375723318,
        "Longitude(deg)": 162.34287769197635,
        "Mean Anomaly(deg)": 134.60409851381482,
        "RAAN(deg)": 114.98339935752087,
        "Satellite Name": "Starlink Shell 1 513",
        "Satellite Number": 513,
        "Semi-Major Axis(m)": 6931778.249405717,
        "Time(s)": 320
    },
    {
        "Altitude(m)": 555807.9966280082,
        "Argument of Periapsis(deg)": 0.011503089823870818,
        "Eccentricity": 0.0,
        "Inclination(deg)": 53.0,
        "Latitude(deg)": 34.32649385053754,
        "Longitude(deg)": 162.8556003249043,
        "Mean Anomaly(deg)": 135.23092971737162,
        "RAAN(deg)": 114.98288058744339,
        "Satellite Name": "Starlink Shell 1 513",
        "Satellite Number": 513,
        "Semi-Major Axis(m)": 6931778.249405717,
        "Time(s)": 330
    },
    {
        "Altitude(m)": 555727.3578499446,
        "Argument of Periapsis(deg)": 0.011851668303382053,
        "Eccentricity": 0.0,
        "Inclination(deg)": 53.0,
        "Latitude(deg)": 33.89352260188591,
        "Longitude(deg)": 163.3626828375894,
        "Mean Anomaly(deg)": 135.8577609209283,
        "RAAN(deg)": 114.98236181736594,
        "Satellite Name": "Starlink Shell 1 513",
        "Satellite Number": 513,
        "Semi-Major Axis(m)": 6931778.249405717,
        "Time(s)": 340
    },
    {
        "Altitude(m)": 555647.299775857,
        "Argument of Periapsis(deg)": 0.012200246782893292,
        "Eccentricity": 0.0,
        "Inclination(deg)": 53.0,
        "Latitude(deg)": 33.45810437413078,
        "Longitude(deg)": 163.86424100286092,
        "Mean Anomaly(deg)": 136.48459212448503,
        "RAAN(deg)": 114.98184304728845,
        "Satellite Name": "Starlink Shell 1 513",
        "Satellite Number": 513,
        "Semi-Major Axis(m)": 6931778.249405717,
        "Time(s)": 350
    },
    {
        "Altitude(m)": 555567.8779374021,
        "Argument of Periapsis(deg)": 0.012548825262404526,
        "Eccentricity": 0.0,
        "Inclination(deg)": 53.0,
        "Latitude(deg)": 33.02030207585864,
        "Longitude(deg)": 164.36039013204626,
        "Mean Anomaly(deg)": 137.1114233280418,
        "RAAN(deg)": 114.98132427721099,
        "Satellite Name": "Starlink Shell 1 513",
        "Satellite Number": 513,
        "Semi-Major Axis(m)": 6931778.249405717,
        "Time(s)": 360
    },
    {
        "Altitude(m)": 555489.1477484151,
        "Argument of Periapsis(deg)": 0.012897403741915765,
        "Eccentricity": 0.0,
        "Inclination(deg)": 53.0,
        "Latitude(deg)": 32.580177194192444,
        "Longitude(deg)": 164.85124400492478,
        "Mean Anomaly(deg)": 137.73825453159841,
        "RAAN(deg)": 114.98080550713351,
        "Satellite Name": "Starlink Shell 1 513",
        "Satellite Number": 513,
        "Semi-Major Axis(m)": 6931778.249405717,
        "Time(s)": 370
    }
]